     2.100          NAVIGATION                              RINEX VERSION / TYPE
fic2rin                                 05/29/2014 00:23:19 PGM / RUN BY / DATE
                                                            END OF HEADER
10 14  5 28 10  0  0.0 -.127399340272D-03 -.159161572810D-11  .000000000000D+00
     .190000000000D+02 -.978125000000D+01  .495734935064D-08 -.301892303154D+01
    -.733882188797D-06  .135686801514D-01  .990554690361D-05  .515373509598D+04
     .295200000000D+06  .670552253723D-07 -.640237012670D+00 -.298023223877D-06
     .942100598157D+00  .177437500000D+03  .865716738611D+00 -.789782897628D-08
    -.573238163385D-09  .100000000000D+01  .179400000000D+04  .000000000000D+00
     .240000000000D+01  .000000000000D+00 -.279396772385D-08  .190000000000D+02
     .288006000000D+06  .400000000000D+01
11 14  5 28 10  0  0.0 -.492590945214D-03 -.306954461848D-11  .000000000000D+00
     .250000000000D+02  .340312500000D+02  .665670584995D-08 -.391073526628D+00
     .185891985893D-05  .149591515074D-01  .537373125553D-05  .515369266129D+04
     .295200000000D+06 -.102445483208D-06 -.202017432181D+01  .175088644028D-06
     .890275841597D+00  .243593750000D+03  .128681807492D+01 -.931717381197D-08
     .541808282775D-09  .100000000000D+01  .179400000000D+04  .000000000000D+00
     .240000000000D+01  .000000000000D+00 -.121071934700D-07  .250000000000D+02
     .288006000000D+06  .400000000000D+01
12 14  5 28 10  0  0.0  .207821838558D-03  .250111042988D-11  .000000000000D+00
     .360000000000D+02 -.135437500000D+03  .370586865002D-08 -.100976111670D+01
    -.706873834133D-05  .515035272110D-02  .719539821148D-05  .515362268257D+04
     .295200000000D+06  .203028321266D-06  .252787365119D+01 -.577419996262D-07
     .987714827133D+00  .256093750000D+03  .440120615762D+00 -.775318009393D-08
    -.361443627006D-09  .100000000000D+01  .179400000000D+04  .000000000000D+00
     .240000000000D+01  .000000000000D+00 -.121071934700D-07  .360000000000D+02
     .288006000000D+06  .400000000000D+01
13 14  5 28 10  0  0.0 -.468315556645D-05 -.386535248253D-11  .000000000000D+00
     .450000000000D+02  .134156250000D+03  .399695220339D-08  .176006875420D+01
     .693276524544D-05  .538606522605D-02  .789389014244D-05  .515359217072D+04
     .295200000000D+06  .819563865662D-07  .499852614239D+00 -.111758708954D-07
     .977940976356D+00  .230125000000D+03  .226970758380D+01 -.778103839720D-08
     .625026034843D-10  .100000000000D+01  .179400000000D+04  .000000000000D+00
     .240000000000D+01  .000000000000D+00 -.111758708954D-07  .450000000000D+02
     .288006000000D+06  .400000000000D+01
14 14  5 28 10  0  0.0  .168843660504D-03 -.341060513165D-11  .000000000000D+00
     .105000000000D+03  .120031250000D+03  .412552898770D-08  .212745370334D+01
     .608898699284D-05  .752968736924D-02  .913441181183D-05  .515367022514D+04
     .295200000000D+06 -.279396772385D-07  .467996730422D+00 -.184401869774D-06
     .970518475270D+00  .206562500000D+03 -.200277400552D+01 -.774960851659D-08
     .935753263594D-10  .100000000000D+01  .179400000000D+04  .000000000000D+00
     .340000000000D+01  .000000000000D+00 -.931322574615D-08  .105000000000D+03
     .288006000000D+06  .400000000000D+01
15 14  5 28 10  0  0.0 -.182028859854D-03 -.216004991671D-11  .000000000000D+00
     .660000000000D+02  .119281250000D+03  .491984778855D-08  .151148816055D+01
     .647082924843D-05  .626042939257D-02  .102706253529D-04  .515370686531D+04
     .295200000000D+06  .409781932831D-07  .356009786768D+00  .130385160446D-06
     .937143706517D+00  .167156250000D+03  .275144485421D+00 -.825998691875D-08
    -.360729311538D-10  .100000000000D+01  .179400000000D+04  .000000000000D+00
     .240000000000D+01  .000000000000D+00 -.102445483208D-07  .660000000000D+02
     .288006000000D+06  .400000000000D+01
16 14  5 28 10  0  0.0 -.216168351471D-03  .193267624127D-11  .000000000000D+00
     .990000000000D+02 -.127375000000D+03  .359907848749D-08  .313916500687D+01
    -.664778053761D-05  .775285030250D-02  .774674117565D-05  .515360275459D+04
     .295200000000D+06 -.726431608200D-07  .254642158868D+01 -.130385160446D-07
     .988331221814D+00  .246000000000D+03  .210447322501D+00 -.761960310134D-08
    -.271439877989D-09  .100000000000D+01  .179400000000D+04  .000000000000D+00
     .340000000000D+01  .000000000000D+00 -.102445483208D-07  .990000000000D+02
     .288006000000D+06  .400000000000D+01
17 14  5 28 10  0  0.0 -.967797823250D-04 -.306954461848D-11  .000000000000D+00
     .670000000000D+02 -.134375000000D+02  .401373861690D-08  .220301724474D+01
    -.610947608948D-06  .928491493687D-02  .113639980555D-04  .515359793663D+04
     .295200000000D+06 -.167638063431D-07 -.270542169574D+01 -.184401869774D-06
     .968948233132D+00  .161562500000D+03 -.209889779113D+01 -.757460122683D-08
     .693243162075D-09  .100000000000D+01  .179400000000D+04  .000000000000D+00
     .240000000000D+01  .000000000000D+00 -.102445483208D-07  .670000000000D+02
     .288006000000D+06  .400000000000D+01
18 14  5 28 10  0  0.0  .322001986206D-03  .238742359215D-11  .000000000000D+00
     .620000000000D+02 -.313750000000D+02  .536236622122D-08 -.248913533176D+01
    -.170245766640D-05  .153171615675D-01  .895373523235D-05  .515369715309D+04
     .295200000000D+06  .244006514549D-06 -.662781478503D+00 -.409781932831D-07
     .925843056417D+00  .183406250000D+03 -.203733940380D+01 -.812962434577D-08
    -.428232123301D-09  .100000000000D+01  .179400000000D+04  .000000000000D+00
     .240000000000D+01  .000000000000D+00 -.111758708954D-07  .620000000000D+02
     .288006000000D+06  .400000000000D+01
19 14  5 28 10  0  0.0 -.459436327219D-03 -.216004991671D-11  .000000000000D+00
     .460000000000D+02  .540625000000D+01  .421053252844D-08  .141842776490D+01
     .314787030220D-06  .103783938102D-01  .106580555439D-04  .515361993599D+04
     .295200000000D+06 -.109896063805D-06 -.265463327474D+01  .949949026108D-07
     .966032814413D+00  .177500000000D+03  .434059972912D+00 -.783318342639D-08
     .481091467962D-09  .100000000000D+01  .179400000000D+04  .000000000000D+00
     .240000000000D+01  .000000000000D+00 -.149011611938D-07  .460000000000D+02
     .288006000000D+06  .400000000000D+01
20 14  5 28 10  0  0.0  .194033142179D-03  .397903932026D-11  .000000000000D+00
     .260000000000D+02 -.168437500000D+02  .545487007438D-08 -.197420061144D+01
    -.832602381706D-06  .576222327072D-02  .884383916855D-05  .515378730965D+04
     .295200000000D+06  .108033418655D-06 -.715851043761D+00  .707805156708D-07
     .926793104676D+00  .190656250000D+03  .133332302205D+01 -.824498629392D-08
    -.482162941165D-09  .100000000000D+01  .179400000000D+04  .000000000000D+00
     .240000000000D+01  .000000000000D+00 -.838190317154D-08  .260000000000D+02
     .288006000000D+06  .400000000000D+01
21 14  5 28 10  0  0.0 -.363690778613D-03 -.216004991671D-11  .000000000000D+00
     .120000000000D+02  .171250000000D+02  .554165940379D-08 -.152841626444D+01
     .127591192722D-05  .215150038712D-01  .370852649212D-05  .515374305534D+04
     .295200000000D+06  .437721610069D-06 -.170830942665D+01  .195577740669D-06
     .931903902612D+00  .284031250000D+03 -.202202318108D+01 -.840785022071D-08
     .372872674501D-09  .100000000000D+01  .179400000000D+04  .000000000000D+00
     .240000000000D+01  .000000000000D+00 -.111758708954D-07  .120000000000D+02
     .288006000000D+06  .400000000000D+01
22 14  5 28 10  0  0.0  .237685162574D-03  .306954461848D-11  .000000000000D+00
     .110000000000D+02 -.290000000000D+02  .545915596719D-08 -.304727728488D+01
    -.160932540894D-05  .725344172679D-02  .930950045586D-05  .515372657967D+04
     .295200000000D+06  .707805156708D-07 -.660897033746D+00 -.128522515297D-06
     .923620414258D+00  .180687500000D+03 -.205876115023D+01 -.825891544555D-08
    -.534665128092D-09  .100000000000D+01  .179400000000D+04  .000000000000D+00
     .240000000000D+01  .000000000000D+00 -.172294676304D-07  .110000000000D+02
     .288006000000D+06  .400000000000D+01
23 14  5 28 10  0  0.0 -.241119414568D-04 -.306954461848D-11  .000000000000D+00
     .380000000000D+02  .125968750000D+03  .464983654150D-08  .108624041409D+01
     .682659447193D-05  .940313702449D-02  .863336026669D-05  .515378944588D+04
     .295200000000D+06  .931322574615D-08  .402673786740D+00  .113621354103D-06
     .952198965126D+00  .207312500000D+03 -.278655236604D+01 -.816141138411D-08
    -.610739725475D-10  .100000000000D+01  .179400000000D+04  .000000000000D+00
     .240000000000D+01  .000000000000D+00 -.200234353542D-07  .380000000000D+02
     .288006000000D+06  .400000000000D+01
24 14  5 28 10  0  0.0 -.291471369565D-04 -.682121026330D-12  .000000000000D+00
     .440000000000D+02  .377500000000D+02  .497020702907D-08  .247474128725D+00
     .189244747162D-05  .207526725717D-02  .197440385818D-06  .515372994995D+04
     .295200000000D+06 -.335276126862D-07  .142975270090D+01  .204890966415D-07
     .956546412409D+00  .368781250000D+03  .349284151098D+00 -.865393189957D-08
    -.525021869268D-10  .100000000000D+01  .179400000000D+04  .000000000000D+00
     .240000000000D+01  .000000000000D+00  .279396772385D-08  .440000000000D+02
     .288006000000D+06  .400000000000D+01
25 14  5 28 10  0  0.0  .243852846324D-04  .454747350886D-12  .000000000000D+00
     .410000000000D+02 -.132687500000D+03  .390016245742D-08 -.177628831713D+01
    -.682659447193D-05  .363475002814D-02  .658631324768D-05  .515360963821D+04
     .295200000000D+06  .149011611938D-07  .248544135974D+01 -.162050127983D-06
     .976390840563D+00  .262500000000D+03  .682138098087D+00 -.778639576321D-08
    -.324656380384D-09  .100000000000D+01  .179400000000D+04  .000000000000D+00
     .240000000000D+01  .000000000000D+00  .512227416039D-08  .410000000000D+02
     .288006000000D+06  .400000000000D+01
